ONEWEB-0650             
1 55813U 23029T   23281.56790128  .00000115  00000+0  25540-3 0  9997
2 55813  87.9217 140.5394 0001902  66.1012 294.0320 13.19726965 29293
ONEWEB-0652             
1 55814U 23029U   23281.56421334  .00000266  00000+0  68353-3 0  9994
2 55814  87.8969 125.3093 0001906  88.5374 271.5974 13.14497554 30276
ONEWEB-0653             
1 55815U 23029V   23281.55152966  .00000209  00000+0  53057-3 0  9998
2 55815  87.9050 125.2395 0002033  90.5826 269.5537 13.14498927 30301
ONEWEB-0654             
1 55816U 23029W   23281.54519074  .00000110  00000+0  26250-3 0  9991
2 55816  87.8969 125.3046 0001703 105.4726 254.6591 13.14499611 30320
ONEWEB-0656             
1 55817U 23029X   23281.58334491  .00000016  00000+0  00000+0 0  9990
2 55817  87.4492 110.6377 0002953  54.6301  79.3397 13.72439622 32052
ONEWEB-0657             
1 55818U 23029Y   23281.56316230  .00000067  00000+0  13499-3 0  9996
2 55818  87.9220 140.5450 0000689  68.6782 291.4424 13.19724741 29305
ONEWEB-0658             
1 55819U 23029Z   23281.55843680  .00000029  00000+0  39669-4 0  9996
2 55819  87.9203 140.4914 0002166  62.1318 298.0033 13.19725171 29315
ONEWEB-0660             
1 55820U 23029AA  23281.51978790 -.00000195  00000+0 -56055-3 0  9998
2 55820  87.8977 125.2781 0002365  78.1857 281.9537 13.14507014 30303
